NARSSCUBE-2             
1 44415U 19022E   22230.22990946  .00009759  00000+0  28773-3 0  9991
2 44415  51.6392 178.4355 0009655 281.7821  78.2078 15.35620359169606
DUCHIFAT-3              
1 44854U 19089C   22230.98601803  .00002674  00000+0  20930-3 0  9991
2 44854  36.9653  89.5309 0008609 359.3404 138.6079 15.01409667147335
OPS-SAT                 
1 44878U 19092F   22230.45215365  .00011383  00000+0  51608-3 0  9990
2 44878  97.4819  53.9090 0013440 120.8197 239.4363 15.20921974147616
FLORIPASAT-1            
1 44885U 19093G   22231.15122530  .00001320  00000+0  16752-3 0  9999
2 44885  97.8959 310.9102 0014191 354.0017   6.1032 14.83324717144146
HUSKYSAT-1 (HO-107)     
1 45119U 19071J   22230.37643364  .00031535  00000+0  62114-3 0  9996
2 45119  51.6369 114.6042 0009009  43.6395 316.5304 15.46902181142947
BY70-2                  
1 45857U 20042B   22231.16125140  .00004780  00000+0  63159-3 0  9992
2 45857  97.9535 307.4259 0008721 271.6945  88.3280 14.80443260114738
SALSAT                  
1 46495U 20068K   22230.47703800  .00001560  00000+0  11486-3 0  9996
2 46495  97.7308 171.8131 0018064  69.3851 290.9310 15.04722748103511
NETSAT-4                
1 46504U 20068U   22230.60034606  .00001429  00000+0  10869-3 0  9991
2 46504  97.7281 170.2904 0013423 108.1135 252.1574 15.03686516103382
NETSAT-3                
1 46505U 20068V   22230.48438807  .00001949  00000+0  14673-3 0  9993
2 46505  97.7269 170.0858 0012784 116.1534 244.1001 15.03653700103370
NETSAT-1                
1 46506U 20068W   22230.50311305  .00002567  00000+0  19217-3 0  9996
2 46506  97.7255 170.0273 0010276 129.0751 231.1340 15.03599835103375
NETSAT-2                
1 46507U 20068X   22230.64657292  .00003030  00000+0  22615-3 0  9992
2 46507  97.7256 170.1631 0009141 133.3231 226.8763 15.03575122103346
BY70-3                  
1 46839U 20079N   22231.20811275  .00020206  00000+0  43927-3 0  9991
2 46839  97.1940 302.5672 0006905 104.8210 331.1014 15.44337381 99924
UVSQ-SAT                
1 47438U 21006AB  22230.12717054  .00006358  00000+0  33105-3 0  9997
2 47438  97.4324 287.8799 0013134  65.5125 294.7476 15.16285561 86624
SOMP2B                  
1 47445U 21006AJ  22230.40321470  .00006077  00000+0  31979-3 0  9994
2 47445  97.4295 287.7628 0012901  68.6538 291.6071 15.15928237 86655
DIY-1 (ARDUIQUBE)       
1 47963U 21022AH  22230.26312186  .00020413  00000+0  10898-2 0  9991
2 47963  97.5247 130.9551 0014091 281.2447  78.7201 15.15072849 76305
