[{"OBJECT_NAME":"NARSSCUBE-2","OBJECT_ID":"2019-022E","EPOCH":"2022-08-18T05:31:04.177344","MEAN_MOTION":15.35620359,"ECCENTRICITY":0.0009655,"INCLINATION":51.6392,"RA_OF_ASC_NODE":178.4355,"ARG_OF_PERICENTER":281.7821,"MEAN_ANOMALY":78.2078,"EPHEMERIS_TYPE":0,"CLASSIFICATION_TYPE":"U","NORAD_CAT_ID":44415,"ELEMENT_SET_NO":999,"REV_AT_EPOCH":16960,"BSTAR":0.00028773,"MEAN_MOTION_DOT":9.759e-5,"MEAN_MOTION_DDOT":0},{"OBJECT_NAME":"DUCHIFAT-3","OBJECT_ID":"2019-089C","EPOCH":"2022-08-18T23:39:51.957792","MEAN_MOTION":15.01409667,"ECCENTRICITY":0.0008609,"INCLINATION":36.9653,"RA_OF_ASC_NODE":89.5309,"ARG_OF_PERICENTER":359.3404,"MEAN_ANOMALY":138.6079,"EPHEMERIS_TYPE":0,"CLASSIFICATION_TYPE":"U","NORAD_CAT_ID":44854,"ELEMENT_SET_NO":999,"REV_AT_EPOCH":14733,"BSTAR":0.0002093,"MEAN_MOTION_DOT":2.674e-5,"MEAN_MOTION_DDOT":0},{"OBJECT_NAME":"OPS-SAT","OBJECT_ID":"2019-092F","EPOCH":"2022-08-18T10:51:06.075360","MEAN_MOTION":15.20921974,"ECCENTRICITY":0.001344,"INCLINATION":97.4819,"RA_OF_ASC_NODE":53.909,"ARG_OF_PERICENTER":120.8197,"MEAN_ANOMALY":239.4363,"EPHEMERIS_TYPE":0,"CLASSIFICATION_TYPE":"U","NORAD_CAT_ID":44878,"ELEMENT_SET_NO":999,"REV_AT_EPOCH":14761,"BSTAR":0.00051608,"MEAN_MOTION_DOT":0.00011383,"MEAN_MOTION_DDOT":0},{"OBJECT_NAME":"FLORIPASAT-1","OBJECT_ID":"2019-093G","EPOCH":"2022-08-19T03:37:45.865920","MEAN_MOTION":14.83324717,"ECCENTRICITY":0.0014191,"INCLINATION":97.8959,"RA_OF_ASC_NODE":310.9102,"ARG_OF_PERICENTER":354.0017,"MEAN_ANOMALY":6.1032,"EPHEMERIS_TYPE":0,"CLASSIFICATION_TYPE":"U","NORAD_CAT_ID":44885,"ELEMENT_SET_NO":999,"REV_AT_EPOCH":14414,"BSTAR":0.00016752,"MEAN_MOTION_DOT":1.32e-5,"MEAN_MOTION_DDOT":0},{"OBJECT_NAME":"HUSKYSAT-1 (HO-107)","OBJECT_ID":"2019-071J","EPOCH":"2022-08-18T09:02:03.866496","MEAN_MOTION":15.46902181,"ECCENTRICITY":0.0009009,"INCLINATION":51.6369,"RA_OF_ASC_NODE":114.6042,"ARG_OF_PERICENTER":43.6395,"MEAN_ANOMALY":316.5304,"EPHEMERIS_TYPE":0,"CLASSIFICATION_TYPE":"U","NORAD_CAT_ID":45119,"ELEMENT_SET_NO":999,"REV_AT_EPOCH":14294,"BSTAR":0.00062114,"MEAN_MOTION_DOT":0.00031535,"MEAN_MOTION_DDOT":0},{"OBJECT_NAME":"BY70-2","OBJECT_ID":"2020-042B","EPOCH":"2022-08-19T03:52:12.120960","MEAN_MOTION":14.8044326,"ECCENTRICITY":0.0008721,"INCLINATION":97.9535,"RA_OF_ASC_NODE":307.4259,"ARG_OF_PERICENTER":271.6945,"MEAN_ANOMALY":88.328,"EPHEMERIS_TYPE":0,"CLASSIFICATION_TYPE":"U","NORAD_CAT_ID":45857,"ELEMENT_SET_NO":999,"REV_AT_EPOCH":11473,"BSTAR":0.00063159,"MEAN_MOTION_DOT":4.78e-5,"MEAN_MOTION_DDOT":0},{"OBJECT_NAME":"SALSAT","OBJECT_ID":"2020-068K","EPOCH":"2022-08-18T11:26:56.083200","MEAN_MOTION":15.04722748,"ECCENTRICITY":0.0018064,"INCLINATION":97.7308,"RA_OF_ASC_NODE":171.8131,"ARG_OF_PERICENTER":69.3851,"MEAN_ANOMALY":290.931,"EPHEMERIS_TYPE":0,"CLASSIFICATION_TYPE":"U","NORAD_CAT_ID":46495,"ELEMENT_SET_NO":999,"REV_AT_EPOCH":10351,"BSTAR":0.00011486,"MEAN_MOTION_DOT":1.56e-5,"MEAN_MOTION_DDOT":0},{"OBJECT_NAME":"NETSAT-4","OBJECT_ID":"2020-068U","EPOCH":"2022-08-18T14:24:29.899584","MEAN_MOTION":15.03686516,"ECCENTRICITY":0.0013423,"INCLINATION":97.7281,"RA_OF_ASC_NODE":170.2904,"ARG_OF_PERICENTER":108.1135,"MEAN_ANOMALY":252.1574,"EPHEMERIS_TYPE":0,"CLASSIFICATION_TYPE":"U","NORAD_CAT_ID":46504,"ELEMENT_SET_NO":999,"REV_AT_EPOCH":10338,"BSTAR":0.00010869,"MEAN_MOTION_DOT":1.429e-5,"MEAN_MOTION_DDOT":0},{"OBJECT_NAME":"NETSAT-3","OBJECT_ID":"2020-068V","EPOCH":"2022-08-18T11:37:31.129248","MEAN_MOTION":15.036537,"ECCENTRICITY":0.0012784,"INCLINATION":97.7269,"RA_OF_ASC_NODE":170.0858,"ARG_OF_PERICENTER":116.1534,"MEAN_ANOMALY":244.1001,"EPHEMERIS_TYPE":0,"CLASSIFICATION_TYPE":"U","NORAD_CAT_ID":46505,"ELEMENT_SET_NO":999,"REV_AT_EPOCH":10337,"BSTAR":0.00014673,"MEAN_MOTION_DOT":1.949e-5,"MEAN_MOTION_DDOT":0},{"OBJECT_NAME":"NETSAT-1","OBJECT_ID":"2020-068W","EPOCH":"2022-08-18T12:04:28.967520","MEAN_MOTION":15.03599835,"ECCENTRICITY":0.0010276,"INCLINATION":97.7255,"RA_OF_ASC_NODE":170.0273,"ARG_OF_PERICENTER":129.0751,"MEAN_ANOMALY":231.134,"EPHEMERIS_TYPE":0,"CLASSIFICATION_TYPE":"U","NORAD_CAT_ID":46506,"ELEMENT_SET_NO":999,"REV_AT_EPOCH":10337,"BSTAR":0.00019217,"MEAN_MOTION_DOT":2.567e-5,"MEAN_MOTION_DDOT":0},{"OBJECT_NAME":"NETSAT-2","OBJECT_ID":"2020-068X","EPOCH":"2022-08-18T15:31:03.900288","MEAN_MOTION":15.03575122,"ECCENTRICITY":0.0009141,"INCLINATION":97.7256,"RA_OF_ASC_NODE":170.1631,"ARG_OF_PERICENTER":133.3231,"MEAN_ANOMALY":226.8763,"EPHEMERIS_TYPE":0,"CLASSIFICATION_TYPE":"U","NORAD_CAT_ID":46507,"ELEMENT_SET_NO":999,"REV_AT_EPOCH":10334,"BSTAR":0.00022615,"MEAN_MOTION_DOT":3.03e-5,"MEAN_MOTION_DDOT":0},{"OBJECT_NAME":"BY70-3","OBJECT_ID":"2020-079N","EPOCH":"2022-08-19T04:59:40.941600","MEAN_MOTION":15.44337381,"ECCENTRICITY":0.0006905,"INCLINATION":97.194,"RA_OF_ASC_NODE":302.5672,"ARG_OF_PERICENTER":104.821,"MEAN_ANOMALY":331.1014,"EPHEMERIS_TYPE":0,"CLASSIFICATION_TYPE":"U","NORAD_CAT_ID":46839,"ELEMENT_SET_NO":999,"REV_AT_EPOCH":9992,"BSTAR":0.00043927,"MEAN_MOTION_DOT":0.00020206,"MEAN_MOTION_DDOT":0},{"OBJECT_NAME":"UVSQ-SAT","OBJECT_ID":"2021-006AB","EPOCH":"2022-08-18T03:03:07.534656","MEAN_MOTION":15.16285561,"ECCENTRICITY":0.0013134,"INCLINATION":97.4324,"RA_OF_ASC_NODE":287.8799,"ARG_OF_PERICENTER":65.5125,"MEAN_ANOMALY":294.7476,"EPHEMERIS_TYPE":0,"CLASSIFICATION_TYPE":"U","NORAD_CAT_ID":47438,"ELEMENT_SET_NO":999,"REV_AT_EPOCH":8662,"BSTAR":0.00033105,"MEAN_MOTION_DOT":6.358e-5,"MEAN_MOTION_DDOT":0},{"OBJECT_NAME":"SOMP2B","OBJECT_ID":"2021-006AJ","EPOCH":"2022-08-18T09:40:37.750080","MEAN_MOTION":15.15928237,"ECCENTRICITY":0.0012901,"INCLINATION":97.4295,"RA_OF_ASC_NODE":287.7628,"ARG_OF_PERICENTER":68.6538,"MEAN_ANOMALY":291.6071,"EPHEMERIS_TYPE":0,"CLASSIFICATION_TYPE":"U","NORAD_CAT_ID":47445,"ELEMENT_SET_NO":999,"REV_AT_EPOCH":8665,"BSTAR":0.00031979,"MEAN_MOTION_DOT":6.077e-5,"MEAN_MOTION_DDOT":0},{"OBJECT_NAME":"DIY-1 (ARDUIQUBE)","OBJECT_ID":"2021-022AH","EPOCH":"2022-08-18T06:18:53.728704","MEAN_MOTION":15.15072849,"ECCENTRICITY":0.0014091,"INCLINATION":97.5247,"RA_OF_ASC_NODE":130.9551,"ARG_OF_PERICENTER":281.2447,"MEAN_ANOMALY":78.7201,"EPHEMERIS_TYPE":0,"CLASSIFICATION_TYPE":"U","NORAD_CAT_ID":47963,"ELEMENT_SET_NO":999,"REV_AT_EPOCH":7630,"BSTAR":0.0010898,"MEAN_MOTION_DOT":0.00020413,"MEAN_MOTION_DDOT":0}]